{
  "norad_id": 58912,
  "name": "GEESAT-2 08",
  "history": [
    {
      "epoch": "2026-03-28T22:13:27.926688Z",
      "apogee_km": 623.0020285192195,
      "perigee_km": 616.9170436191762,
      "latitude_deg": -5.756556803946227e-06,
      "longitude_deg": -154.77192660676172,
      "height_km": 618.0116999344405,
      "semi_major_axis_km": 6998.096536069197,
      "eccentricity": 0.00043476,
      "inclination_deg": 49.9905,
      "raan_deg": 4.9339,
      "arg_perigee_deg": 35.1546,
      "mean_anomaly_deg": 324.9678,
      "mean_motion_rev_day": 14.82971717
    },
    {
      "epoch": "2026-03-29T04:41:35.730816Z",
      "apogee_km": 622.9873508804149,
      "perigee_km": 616.911612197142,
      "latitude_deg": 3.1567868158810254e-05,
      "longitude_deg": 106.68202183095295,
      "height_km": 618.0357407225212,
      "semi_major_axis_km": 6998.086481538778,
      "eccentricity": 0.0004341,
      "inclination_deg": 49.9905,
      "raan_deg": 3.686,
      "arg_perigee_deg": 36.1387,
      "mean_anomaly_deg": 323.9844,
      "mean_motion_rev_day": 14.82974913
    },
    {
      "epoch": "2026-03-30T04:57:04.821984Z",
      "apogee_km": 622.9630426966432,
      "perigee_km": 616.8971181513325,
      "latitude_deg": -5.43323942825954e-05,
      "longitude_deg": 97.13459358491662,
      "height_km": 618.1573436811998,
      "semi_major_axis_km": 6998.067080423988,
      "eccentricity": 0.0004334,
      "inclination_deg": 49.9905,
      "raan_deg": 359.0061,
      "arg_perigee_deg": 40.3337,
      "mean_anomaly_deg": 319.7921,
      "mean_motion_rev_day": 14.8298108
    },
    {
      "epoch": "2026-03-30T06:34:06.743424Z",
      "apogee_km": 622.9618204255266,
      "perigee_km": 616.8949176344995,
      "latitude_deg": 1.2914589098603998e-05,
      "longitude_deg": 72.49822774168796,
      "height_km": 618.1660266436401,
      "semi_major_axis_km": 6998.065369030013,
      "eccentricity": 0.00043347,
      "inclination_deg": 49.9904,
      "raan_deg": 358.6941,
      "arg_perigee_deg": 40.6484,
      "mean_anomaly_deg": 319.4777,
      "mean_motion_rev_day": 14.82981624
    },
    {
      "epoch": "2026-03-30T11:25:12.491328Z",
      "apogee_km": 622.9542850600983,
      "perigee_km": 616.8922853186559,
      "latitude_deg": -4.879997839614683e-05,
      "longitude_deg": -1.410921139479935,
      "height_km": 618.1896191215885,
      "semi_major_axis_km": 6998.060285189376,
      "eccentricity": 0.00043312,
      "inclination_deg": 49.9905,
      "raan_deg": 357.7582,
      "arg_perigee_deg": 41.4218,
      "mean_anomaly_deg": 318.7047,
      "mean_motion_rev_day": 14.8298324
    },
    {
      "epoch": "2026-03-30T22:44:25.861920Z",
      "apogee_km": 622.938366826651,
      "perigee_km": 616.8881325028005,
      "latitude_deg": 3.566770451175365e-05,
      "longitude_deg": -173.86537239507288,
      "height_km": 618.2536560790683,
      "semi_major_axis_km": 6998.050249664725,
      "eccentricity": 0.00043228,
      "inclination_deg": 49.9905,
      "raan_deg": 355.5743,
      "arg_perigee_deg": 43.3835,
      "mean_anomaly_deg": 316.7443,
      "mean_motion_rev_day": 14.8298643
    },
    {
      "epoch": "2026-03-31T21:22:52.363776Z",
      "apogee_km": 622.9273083757334,
      "perigee_km": 616.8614147915132,
      "latitude_deg": -2.7830482411248074e-05,
      "longitude_deg": -158.773268795636,
      "height_km": 618.3765194919669,
      "semi_major_axis_km": 6998.031361583623,
      "eccentricity": 0.0004334,
      "inclination_deg": 49.9906,
      "raan_deg": 351.2067,
      "arg_perigee_deg": 47.3084,
      "mean_anomaly_deg": 312.8218,
      "mean_motion_rev_day": 14.82992434
    },
    {
      "epoch": "2026-04-01T20:01:18.535584Z",
      "apogee_km": 622.9071705400029,
      "perigee_km": 616.8552843768966,
      "latitude_deg": 5.621810546381927e-06,
      "longitude_deg": -143.68000542427365,
      "height_km": 618.5115033977416,
      "semi_major_axis_km": 6998.0182274584495,
      "eccentricity": 0.0004324,
      "inclination_deg": 49.9904,
      "raan_deg": 346.8388,
      "arg_perigee_deg": 50.9078,
      "mean_anomaly_deg": 309.2244,
      "mean_motion_rev_day": 14.82996609
    },
    {
      "epoch": "2026-04-02T20:16:46.121664Z",
      "apogee_km": 622.8565950156681,
      "perigee_km": 616.8397273740729,
      "latitude_deg": -2.162254863225914e-05,
      "longitude_deg": -153.22119618621468,
      "height_km": 618.6723215114068,
      "semi_major_axis_km": 6997.98516119487,
      "eccentricity": 0.0004299,
      "inclination_deg": 49.9901,
      "raan_deg": 342.1588,
      "arg_perigee_deg": 55.2717,
      "mean_anomaly_deg": 304.8625,
      "mean_motion_rev_day": 14.8300712
    },
    {
      "epoch": "2026-04-02T23:30:49.765824Z",
      "apogee_km": 622.8535937018787,
      "perigee_km": 616.8353296448395,
      "latitude_deg": 2.570888601637509e-05,
      "longitude_deg": 157.50692956791156,
      "height_km": 618.6796043470965,
      "semi_major_axis_km": 6997.981461673359,
      "eccentricity": 0.00043,
      "inclination_deg": 49.9901,
      "raan_deg": 341.5349,
      "arg_perigee_deg": 55.5356,
      "mean_anomaly_deg": 304.5988,
      "mean_motion_rev_day": 14.83008296
    },
    {
      "epoch": "2026-04-03T20:32:13.229088Z",
      "apogee_km": 622.834734143189,
      "perigee_km": 616.8066933685604,
      "latitude_deg": -6.277353497424843e-05,
      "longitude_deg": -162.76019944827578,
      "height_km": 618.8297886715583,
      "semi_major_axis_km": 6997.9577137558745,
      "eccentricity": 0.0004307,
      "inclination_deg": 49.9899,
      "raan_deg": 337.479,
      "arg_perigee_deg": 59.5243,
      "mean_anomaly_deg": 300.6119,
      "mean_motion_rev_day": 14.83015845
    },
    {
      "epoch": "2026-04-04T20:47:39.824160Z",
      "apogee_km": 622.8140590546136,
      "perigee_km": 616.7916320235427,
      "latitude_deg": 3.196963906852789e-06,
      "longitude_deg": -172.29717351421525,
      "height_km": 618.99881529156,
      "semi_major_axis_km": 6997.939845539077,
      "eccentricity": 0.0004303,
      "inclination_deg": 49.9897,
      "raan_deg": 332.799,
      "arg_perigee_deg": 63.5455,
      "mean_anomaly_deg": 296.5924,
      "mean_motion_rev_day": 14.83021525
    },
    {
      "epoch": "2026-04-05T14:34:59.065248Z",
      "apogee_km": 622.7874273089465,
      "perigee_km": 616.7853084363223,
      "latitude_deg": -2.230632906410224e-05,
      "longitude_deg": -83.28992227042502,
      "height_km": 619.1141889394139,
      "semi_major_axis_km": 6997.923367872634,
      "eccentricity": 0.00042885,
      "inclination_deg": 49.9897,
      "raan_deg": 329.367,
      "arg_perigee_deg": 66.233,
      "mean_anomaly_deg": 293.9057,
      "mean_motion_rev_day": 14.83026763
    },
    {
      "epoch": "2026-04-05T19:26:04.299936Z",
      "apogee_km": 622.7973742451759,
      "perigee_km": 616.7693656385081,
      "latitude_deg": -2.4497242870923977e-05,
      "longitude_deg": -157.1971778007389,
      "height_km": 619.1640109190075,
      "semi_major_axis_km": 6997.920369941842,
      "eccentricity": 0.0004307,
      "inclination_deg": 49.9899,
      "raan_deg": 328.4308,
      "arg_perigee_deg": 67.4345,
      "mean_anomaly_deg": 292.7048,
      "mean_motion_rev_day": 14.83027716
    },
    {
      "epoch": "2026-04-06T03:31:12.973152Z",
      "apogee_km": 622.7869087826466,
      "perigee_km": 616.7698212351979,
      "latitude_deg": 2.5952347201415735e-05,
      "longitude_deg": 79.62465556465395,
      "height_km": 619.208579309569,
      "semi_major_axis_km": 6997.915365008922,
      "eccentricity": 0.00042992,
      "inclination_deg": 49.9899,
      "raan_deg": 326.8708,
      "arg_perigee_deg": 68.4112,
      "mean_anomaly_deg": 291.7284,
      "mean_motion_rev_day": 14.83029307
    },
    {
      "epoch": "2026-04-07T15:05:50.715744Z",
      "apogee_km": 622.7591242246572,
      "perigee_km": 616.7536720682365,
      "latitude_deg": 1.2987649654050854e-05,
      "longitude_deg": -102.3579216826889,
      "height_km": 619.4987474129559,
      "semi_major_axis_km": 6997.893398146447,
      "eccentricity": 0.00042909,
      "inclination_deg": 49.9898,
      "raan_deg": 320.0066,
      "arg_perigee_deg": 74.6558,
      "mean_anomaly_deg": 285.4854,
      "mean_motion_rev_day": 14.8303629
    },
    {
      "epoch": "2026-04-07T19:56:55.820832Z",
      "apogee_km": 622.7541059724263,
      "perigee_km": 616.7555131132867,
      "latitude_deg": -1.8341017143466557e-05,
      "longitude_deg": -176.26446029079915,
      "height_km": 619.5424532594933,
      "semi_major_axis_km": 6997.891809542856,
      "eccentricity": 0.0004286,
      "inclination_deg": 49.9898,
      "raan_deg": 319.0706,
      "arg_perigee_deg": 75.5336,
      "mean_anomaly_deg": 284.6077,
      "mean_motion_rev_day": 14.83036795
    },
    {
      "epoch": "2026-04-08T15:21:16.127136Z",
      "apogee_km": 622.7353147654658,
      "perigee_km": 616.7545050123617,
      "latitude_deg": 2.7439476274951355e-05,
      "longitude_deg": -111.89039548391847,
      "height_km": 619.7185235506147,
      "semi_major_axis_km": 6997.8819098889135,
      "eccentricity": 0.00042733,
      "inclination_deg": 49.9897,
      "raan_deg": 315.3262,
      "arg_perigee_deg": 79.1447,
      "mean_anomaly_deg": 280.9972,
      "mean_motion_rev_day": 14.83039942
    },
    {
      "epoch": "2026-04-09T20:27:46.391328Z",
      "apogee_km": 622.7143925508644,
      "perigee_km": 616.7396162639025,
      "latitude_deg": 2.455244231508068e-06,
      "longitude_deg": 164.67173947968735,
      "height_km": 619.932197337399,
      "semi_major_axis_km": 6997.864004407384,
      "eccentricity": 0.0004269,
      "inclination_deg": 49.9905,
      "raan_deg": 309.7099,
      "arg_perigee_deg": 83.627,
      "mean_anomaly_deg": 276.5154,
      "mean_motion_rev_day": 14.83045634
    },
    {
      "epoch": "2026-04-10T12:38:02.960160Z",
      "apogee_km": 622.7053007079803,
      "perigee_km": 616.7305321803215,
      "latitude_deg": -1.989694475053844e-05,
      "longitude_deg": -81.68154808950374,
      "height_km": 620.0874352461097,
      "semi_major_axis_km": 6997.854916444151,
      "eccentricity": 0.0004269,
      "inclination_deg": 49.9895,
      "raan_deg": 306.5898,
      "arg_perigee_deg": 86.7929,
      "mean_anomaly_deg": 273.3497,
      "mean_motion_rev_day": 14.83048523
    }
  ]
}